1 47492U 21006CH  21163.39606224  .00001206  00000-0  72381-4 0  9994
2 47492  97.4973 224.7961 0012359 115.1140 245.1374 15.12738813 21289
1 47492U 21006CH  21163.72679795  .00001183  00000-0  71103-4 0  9999
2 47492  97.4973 225.1212 0012368 114.1416 246.1110 15.12739685 21331
1 47492U 21006CH  21164.38826992  .00001016  00000-0  61578-4 0  9995
2 47492  97.4973 225.7713 0012394 112.1208 248.1340 15.12740355 21433
1 47492U 21006CH  21164.78515218  .00001080  00000-0  65231-4 0  9996
2 47492  97.4972 226.1614 0012401 110.9080 249.3480 15.12741739 21491
1 47492U 21006CH  21165.31432836  .00001000  00000-0  60684-4 0  9999
2 47492  97.4972 226.6815 0012421 109.4060 250.8515 15.12742610 21576
1 47492U 21006CH  21165.77735666  .00001036  00000-0  62687-4 0  9990
2 47492  97.4972 227.1366 0012405 108.0160 252.2424 15.12744049 21642
1 47492U 21006CH  21165.90965041  .00001059  00000-0  64024-4 0  9999
2 47492  97.4971 227.2666 0012415 107.5888 252.6700 15.12744518 21661
1 47492U 21006CH  21166.50497139  .00001146  00000-0  68982-4 0  9998
2 47492  97.4971 227.8517 0012414 105.8704 254.3896 15.12746742 21755
1 47492U 21006CH  21166.90185178  .00001185  00000-0  71166-4 0  9990
2 47492  97.4970 228.2417 0012422 104.6767 255.5842 15.12748086 21817
1 47492U 21006CH  21167.10029141  .00001285  00000-0  76871-4 0  9999
2 47492  97.4970 228.4367 0012405 104.0586 256.2025 15.12749322 21845
1 47492U 21006CH  21167.49716980  .00001673  00000-0  98959-4 0  9997
2 47492  97.4970 228.8268 0012412 102.8737 257.3882 15.12752979 21903
1 47492U 21006CH  21167.89404850  .00002049  00000-0  12040-3 0  9995
2 47492  97.4970 229.2168 0012396 101.6209 258.6413 15.12756076 21961
1 47492U 21006CH  21168.42321997  .00001805  00000-0  10647-3 0  9995
2 47492  97.4965 229.7371 0012483 100.1734 260.0906 15.12758114 22049
1 47492U 21006CH  21168.48936625  .00001834  00000-0  10812-3 0  9997
2 47492  97.4965 229.8021 0012477  99.9893 260.2746 15.12758513 22054
1 47492U 21006CH  21168.88624412  .00001532  00000-0  90933-4 0  9997
2 47492  97.4966 230.1921 0012479  98.7822 261.4822 15.12759116 22115
1 47492U 21006CH  21169.15082911  .00001464  00000-0  87080-4 0  9993
2 47492  97.4966 230.4521 0012476  98.0058 262.2589 15.12759971 22157
1 47492U 21006CH  21169.61385357  .00001675  00000-0  99040-4 0  9997
2 47492  97.4970 230.9071 0012428  96.5223 263.7424 15.12760959 22221
1 47492U 21006CH  21170.40760562  .00001591  00000-0  94264-4 0  9991
2 47492  97.4967 231.6872 0012481  94.2911 265.9746 15.12764724 22340
1 47492U 21006CH  21170.87062817  .00001646  00000-0  97381-4 0  9994
2 47492  97.4969 232.1422 0012447  92.8060 267.4595 15.12766130 22410
1 47492U 21006CH  21171.06906596  .00001645  00000-0  97337-4 0  9997
2 47492  97.4969 232.3373 0012449  92.2351 268.0306 15.12766866 22442
1 47492U 21006CH  21172.32583780  .00001551  00000-0  91987-4 0  9994
2 47492  97.4969 233.5724 0012471  88.5096 271.7564 15.12770458 22634
1 47492U 21006CH  21173.45031427  .00001787  00000-0  10540-3 0  9991
2 47492  97.4968 234.6776 0012448  85.1305 275.1347 15.12775248 22800
1 47492U 21006CH  21173.78104117  .00001887  00000-0  11110-3 0  9999
2 47492  97.4968 235.0027 0012442  84.1422 276.1227 15.12777261 22857
1 47492U 21006CH  21174.50864157  .00001757  00000-0  10367-3 0  9996
2 47492  97.4967 235.7178 0012409  81.9959 278.2680 15.12779075 22966
1 47492U 21006CH  21174.70707784  .00001712  00000-0  10110-3 0  9997
2 47492  97.4967 235.9128 0012401  81.3879 278.8757 15.12779504 22991
1 47492U 21006CH  21174.90551415  .00001656  00000-0  97910-4 0  9998
2 47492  97.4967 236.1078 0012394  80.8175 279.4457 15.12779825 23027
1 47492U 21006CH  21175.43467707  .00001609  00000-0  95243-4 0  9992
2 47492  97.4967 236.6279 0012370  79.2545 281.0078 15.12781231 23103
1 47492U 21006CH  21175.83154814  .00001612  00000-0  95403-4 0  9990
2 47492  97.4967 237.0179 0012346  78.0440 282.2174 15.12782737 23169
1 47492U 21006CH  21176.42685399  .00001856  00000-0  10932-3 0  9996
2 47492  97.4967 237.6030 0012325  76.2443 284.0159 15.12786216 23250
1 47492U 21006CH  21176.88986952  .00001784  00000-0  10519-3 0  9996
2 47492  97.4966 238.0580 0012304  74.8318 285.4273 15.12787496 23327
1 47492U 21006CH  21177.48517393  .00001773  00000-0  10459-3 0  9993
2 47492  97.4966 238.6432 0012285  73.0825 287.1752 15.12789883 23414
1 47492U 21006CH  21177.88204259  .00001839  00000-0  10834-3 0  9991
2 47492  97.4966 239.0332 0012269  71.8817 288.3749 15.12791933 23471
1 47492U 21006CH  21178.47734511  .00001973  00000-0  11593-3 0  9998
2 47492  97.4961 239.6183 0012285  70.3216 289.9340 15.12794831 23565
1 47492U 21006CH  21178.67577915  .00002000  00000-0  11749-3 0  9998
2 47492  97.4960 239.8133 0012275  69.7177 290.5372 15.12795713 23594
1 47492U 21006CH  21178.87421299  .00002055  00000-0  12057-3 0  9996
2 47492  97.4960 240.0083 0012263  69.1046 291.1496 15.12796619 23622
1 47492U 21006CH  21179.13879154  .00002019  00000-0  11853-3 0  9996
2 47492  97.4959 240.2684 0012243  68.2946 291.9588 15.12797466 23661
1 47492U 21006CH  21179.86638102  .00002358  00000-0  13783-3 0  9992
2 47492  97.4959 240.9835 0012210  66.1008 294.1501 15.12801347 23772
1 47492U 21006CH  21180.13095859  .00002414  00000-0  14099-3 0  9994
2 47492  97.4958 241.2435 0012190  65.3137 294.9362 15.12802644 23811
1 47492U 21006CH  21180.85854609  .00002860  00000-0  16636-3 0  9993
2 47492  97.4958 241.9586 0012147  63.1237 297.1234 15.12806852 23924
1 47492U 21006CH  21181.45384423  .00002311  00000-0  13514-3 0  9995
2 47492  97.4959 242.5437 0012102  61.3252 298.9194 15.12807425 24017
1 47492U 21006CH  21181.85070924  .00002468  00000-0  14401-3 0  9996
2 47492  97.4959 242.9337 0012095  60.1466 300.0965 15.12809351 24072
1 47492U 21006CH  21182.18142794  .00002224  00000-0  13016-3 0  9999
2 47492  97.4963 243.2585 0012091  58.9244 301.3172 15.12811623 24126
1 47492U 21006CH  21182.84286930  .00001827  00000-0  10757-3 0  9990
2 47492  97.4963 243.9086 0012036  56.9092 303.3293 15.12811517 24226
1 47492U 21006CH  21183.50430762  .00001790  00000-0  10549-3 0  9996
2 47492  97.4962 244.5587 0011971  54.8920 305.3431 15.12814096 24324
1 47492U 21006CH  21183.83502619  .00001854  00000-0  10913-3 0  9999
2 47492  97.4962 244.8837 0011947  53.8055 306.4279 15.12815784 24378
1 47492U 21006CH  21184.09960106  .00001763  00000-0  10391-3 0  9996
2 47492  97.4962 245.1437 0011918  52.9562 307.2757 15.12816409 24419
1 47492U 21006CH  21184.49646365  .00001622  00000-0  95943-4 0  9999
2 47492  97.4962 245.5337 0011871  51.7389 308.4908 15.12816978 24472
1 47492U 21006CH  21184.82718239  .00001485  00000-0  88140-4 0  9994
2 47492  97.4961 245.8588 0011869  50.7419 309.4863 15.12817362 24527
1 47492U 21006CH  21185.42247592  .00001271  00000-0  75952-4 0  9990
2 47492  97.4962 246.4438 0011826  48.9409 311.2841 15.12817913 24619
1 47492U 21006CH  21185.48861941  .00001291  00000-0  77071-4 0  9992
2 47492  97.4962 246.5088 0011821  48.7320 311.4927 15.12818253 24622
1 47492U 21006CH  21185.88548094  .00001296  00000-0  77360-4 0  9993
2 47492  97.4962 246.8988 0011789  47.4795 312.7430 15.12819468 24687
1 47492U 21006CH  21186.41462891  .00001408  00000-0  83741-4 0  9998
2 47492  97.4962 247.4189 0011748  45.8387 314.3808 15.12821598 24764
1 47492U 21006CH  21186.67920271  .00001491  00000-0  88460-4 0  9992
2 47492  97.4962 247.6789 0011746  45.0642 315.1540 15.12822762 24807
1 47492U 21006CH  21187.14220606  .00001529  00000-0  90640-4 0  9995
2 47492  97.4962 248.1339 0011722  43.5979 316.6176 15.12824615 24871
1 47492U 21006CH  21187.73749417  .00001642  00000-0  97034-4 0  9996
2 47492  97.4962 248.7189 0011686  41.7716 318.4405 15.12827825 24969
1 47492U 21006CH  21188.13435335  .00001569  00000-0  92911-4 0  9999
2 47492  97.4961 249.1089 0011649  40.5273 319.6823 15.12828759 25028
1 47492U 21006CH  21188.79578472  .00001591  00000-0  94118-4 0  9997
2 47492  97.4962 249.7590 0011581  38.4405 321.7649 15.12830854 25120
1 47492U 21006CH  21188.99421401  .00001565  00000-0  92655-4 0  9993
2 47492  97.4962 249.9540 0011544  37.7659 322.4380 15.12831293 25150
1 47492U 21006CH  21189.72178723  .00001589  00000-0  93984-4 0  9993
2 47492  97.4961 250.6690 0011491  35.4733 324.7259 15.12833570 25265
1 47492U 21006CH  21190.11864599  .00001426  00000-0  84742-4 0  9993
2 47492  97.4960 251.0590 0011476  34.2725 325.9245 15.12833620 25320
1 47492U 21006CH  21190.31707484  .00001353  00000-0  80624-4 0  9998
2 47492  97.4960 251.2540 0011453  33.6427 326.5529 15.12833798 25355
1 47492U 21006CH  21190.78007558  .00001234  00000-0  73822-4 0  9994
2 47492  97.4960 251.7091 0011407  32.1340 328.0584 15.12834373 25424
1 47492U 21006CH  21191.44150374  .00001248  00000-0  74627-4 0  9992
2 47492  97.4960 252.3591 0011329  29.9731 330.2146 15.12836420 25522
1 47492U 21006CH  21191.90450286  .00001190  00000-0  71339-4 0  9991
2 47492  97.4959 252.8141 0011282  28.4394 331.7450 15.12837560 25590
1 47492U 21006CH  21192.49978750  .00001095  00000-0  65927-4 0  9997
2 47492  97.4959 253.3991 0011218  26.4987 333.6815 15.12838665 25687
1 47492U 21006CH  21192.69821556  .00001066  00000-0  64294-4 0  9994
2 47492  97.4959 253.5941 0011199  25.8358 334.3430 15.12839039 25718
1 47492U 21006CH  21192.83050087  .00001053  00000-0  63515-4 0  9994
2 47492  97.4959 253.7241 0011187  25.4134 334.7645 15.12839300 25733
1 47492U 21006CH  21193.42578512  .00000965  00000-0  58515-4 0  9993
2 47492  97.4959 254.3091 0011113  23.3843 336.7891 15.12840172 25820
1 47492U 21006CH  21193.75649832  .00000926  00000-0  56305-4 0  9995
2 47492  97.4958 254.6341 0011083  22.2930 337.8781 15.12840716 25870
1 47492U 21006CH  21193.88878359  .00000889  00000-0  54195-4 0  9990
2 47492  97.4958 254.7641 0011073  21.9567 338.2136 15.12840805 25895
1 47492U 21006CH  21194.48406748  .00000759  00000-0  46814-4 0  9991
2 47492  97.4958 255.3492 0011013  20.0303 340.1358 15.12841222 25980
